{
"type": "FeatureCollection",
"name": "water_season_1",
"crs": { "type": "name", "properties": { "name": "urn:ogc:def:crs:EPSG::3857" } },
"features": [
{ "type": "Feature", "properties": { "season": "May 2023", "lc_code": "WBRT", "dscr1": "Water bodies", "dscr2": "Reservoir / Tanks", "dscr3": "Reservoir / Tanks", "Shape_Leng": 0.30205002410999998, "PI_Code": " ", "stcode": 33, "LULC_Code": "", "Remarks_IR": "", "CHECK_IRS": "", "Shape_Length": 0.30601333154930505, "Shape_Area": 0.0019442080534141548, "area_sqkm": 0.012406202299468289, "ndwi_thr": 0.25 }, "geometry": { "type": "MultiPolygon", "coordinates": [ [ [ [ 8913065.279543623328209, 1463522.668359067291021 ], [ 8913137.1373924408108, 1463522.933738857740536 ], [ 8913137.363331688567996, 1463460.947366456035525 ], [ 8913147.628717448562384, 1463460.985261145047843 ], [ 8913147.779323032125831, 1463419.661085747182369 ], [ 8913178.575437324121594, 1463419.774743896676227 ], [ 8913178.688355008140206, 1463388.78164863307029 ], [ 8913199.219076940789819, 1463388.857400277163833 ], [ 8913199.331969723105431, 1463357.864336604252458 ], [ 8913209.597319940105081, 1463357.902205946855247 ], [ 8913209.634946575388312, 1463347.571191838243976 ], [ 8913271.22703150101006, 1463347.798327467404306 ], [ 8913271.264635505154729, 1463337.467315346002579 ], [ 8913291.795325299724936, 1463337.542996665230021 ], [ 8913291.870517559349537, 1463316.880982383154333 ], [ 8913363.727888636291027, 1463317.145744937937707 ], [ 8913363.840596685186028, 1463286.152745277620852 ], [ 8913415.167242949828506, 1463286.341744666919112 ], [ 8913415.20479311235249, 1463276.010750755434856 ], [ 8913425.470119489356875, 1463276.048539103707299 ], [ 8913425.507665645331144, 1463265.717548607848585 ], [ 8913435.772988582029939, 1463265.755332923494279 ], [ 8913435.96069648489356, 1463214.10043451981619 ], [ 8913487.287222312763333, 1463214.289292756235227 ], [ 8913487.362266251817346, 1463193.627356447046623 ], [ 8913528.423462217673659, 1463193.778373295674101 ], [ 8913528.535981312394142, 1463162.785493165487424 ], [ 8913497.740117428824306, 1463162.672238712431863 ], [ 8913497.777634400874376, 1463152.34128692233935 ], [ 8913477.247067341580987, 1463152.265765784308314 ], [ 8913477.472207909449935, 1463090.280136157292873 ], [ 8913487.737468954175711, 1463090.317896891850978 ], [ 8913487.962576989084482, 1463028.332398743601516 ], [ 8913570.084496797993779, 1463028.63433604571037 ], [ 8913570.196957627311349, 1462997.641630084253848 ], [ 8913559.931727830320597, 1462997.603901891270652 ], [ 8913560.269128557294607, 1462904.62598633300513 ], [ 8913519.20834624581039, 1462904.475046330597252 ], [ 8913519.17084351554513, 1462914.805909902090207 ], [ 8913467.844853376969695, 1462914.617149166297168 ], [ 8913467.807331746444106, 1462924.948015013476834 ], [ 8913416.481330070644617, 1462924.759159175213426 ], [ 8913416.443789539858699, 1462935.090027297148481 ], [ 8913406.178586330264807, 1462935.05224460340105 ], [ 8913406.103496974334121, 1462955.713991374941543 ], [ 8913395.838286601006985, 1462955.676204364048317 ], [ 8913395.800737773999572, 1462966.007083013653755 ], [ 8913344.474671546369791, 1462965.818090325221419 ], [ 8913344.549806149676442, 1462945.156339574372396 ], [ 8913334.284601202234626, 1462945.118530365405604 ], [ 8913334.697862219065428, 1462831.479168865829706 ], [ 8913344.963026212528348, 1462831.51697493949905 ], [ 8913345.000589972361922, 1462821.186145802726969 ], [ 8913396.326395574957132, 1462821.37511853966862 ], [ 8913396.476573316380382, 1462780.051833282457665 ], [ 8913447.802311541512609, 1462780.240706650307402 ], [ 8913447.952410293743014, 1462738.917474876623601 ], [ 8913499.278081139549613, 1462739.106248880270869 ], [ 8913499.353091590106487, 1462718.444652338512242 ], [ 8913643.064903352409601, 1462718.972713279537857 ], [ 8913643.177260547876358, 1462687.980334259103984 ], [ 8913591.851662967354059, 1462687.791829628869891 ], [ 8913592.076481407508254, 1462625.807179977418855 ], [ 8913602.341578021645546, 1462625.844886690378189 ], [ 8913602.52890033274889, 1462574.191112264990807 ], [ 8913612.793978618457913, 1462574.228813809109852 ], [ 8913612.831438509747386, 1462563.898069734917954 ], [ 8913623.096513355150819, 1462563.935767248971388 ], [ 8913623.24633520655334, 1462522.612826795550063 ], [ 8913664.306577859446406, 1462522.763574841432273 ], [ 8913664.568650992587209, 1462450.448563464684412 ], [ 8913674.833686307072639, 1462450.486239121528342 ], [ 8913675.095719542354345, 1462378.171406954526901 ], [ 8913716.15575941093266, 1462378.322064167819917 ], [ 8913716.305426923558116, 1462336.999379734741524 ], [ 8913747.100415129214525, 1462337.112329906783998 ], [ 8913747.250033462420106, 1462295.789701226865873 ], [ 8913736.985051998868585, 1462295.752056050812826 ], [ 8913737.209493355825543, 1462233.768225659383461 ], [ 8913768.004371607676148, 1462233.881144840735942 ], [ 8913768.079160805791616, 1462213.219895918155089 ], [ 8913819.403926324099302, 1462213.408016808563843 ], [ 8913819.590801347047091, 1462161.754952110117301 ], [ 8913809.325866285711527, 1462161.717336841858923 ], [ 8913809.400621762499213, 1462141.056137409992516 ], [ 8913788.870767373591661, 1462140.980896772583947 ], [ 8913789.05768833681941, 1462089.327965730801225 ], [ 8913809.587505517527461, 1462089.403203529538587 ], [ 8913809.923878498375416, 1461996.428155450616032 ], [ 8913799.65900325588882, 1461996.390540977939963 ], [ 8913799.958012040704489, 1461913.746307442896068 ], [ 8913830.752549318596721, 1461913.859132817713544 ], [ 8913830.864639470353723, 1461882.86760368058458 ], [ 8913871.923981808125973, 1461883.017981687793508 ], [ 8913871.961329746991396, 1461872.687478233594447 ], [ 8913933.550329387187958, 1461872.912931213388219 ], [ 8913933.475677873939276, 1461893.573945220094174 ], [ 8913974.535046370700002, 1461893.724174587754533 ], [ 8913974.572357386350632, 1461883.393664602655917 ], [ 8913984.837196493521333, 1461883.431212299969047 ], [ 8913984.911810237914324, 1461862.770202852552757 ], [ 8913995.176642185077071, 1461862.807746239006519 ], [ 8913995.213944913819432, 1461852.477246776688844 ], [ 8914005.478773422539234, 1461852.514786136103794 ], [ 8914005.516072150319815, 1461842.184290085919201 ], [ 8914026.04572257399559, 1461842.259357005590573 ], [ 8914026.083013577386737, 1461831.928864085581154 ], [ 8914036.347835490480065, 1461831.966391646303236 ], [ 8914036.496981812641025, 1461790.644455796806142 ], [ 8914015.96736802905798, 1461790.569399197120219 ], [ 8914016.041954381391406, 1461769.908454583026469 ], [ 8914005.777155352756381, 1461769.870921233436093 ], [ 8914005.814451826736331, 1461759.540454753674567 ], [ 8913995.549656799063087, 1461759.502917943755165 ], [ 8913995.848048213869333, 1461676.859321425203234 ], [ 8914026.642344858497381, 1461676.971913825487718 ], [ 8914026.679631356149912, 1461666.641480042831972 ], [ 8914047.209156420081854, 1461666.716522358357906 ], [ 8914047.470101956278086, 1461594.403585395775735 ], [ 8914078.264313545078039, 1461594.516114846104756 ], [ 8914078.413374450057745, 1461553.194514489034191 ], [ 8914109.207543935626745, 1461553.307006851537153 ], [ 8914109.319303184747696, 1461522.315842839656398 ], [ 8914099.054590899497271, 1461522.278349977917969 ], [ 8914099.091847140341997, 1461511.947969647822902 ], [ 8914088.827138856053352, 1461511.910473325988278 ], [ 8914089.162465825676918, 1461418.937219192273915 ], [ 8914150.750518901273608, 1461419.162125698756427 ], [ 8914150.787753731012344, 1461408.831780907697976 ], [ 8914161.052426509559155, 1461408.869251941563562 ], [ 8914161.126887885853648, 1461388.208572877570987 ], [ 8914171.39155350625515, 1461388.246039603604004 ], [ 8914171.577683435752988, 1461336.594405193114653 ], [ 8914120.254451123997569, 1461336.407041206490248 ], [ 8914120.477909330278635, 1461274.425210332032293 ], [ 8914130.742532916367054, 1461274.462688917759806 ], [ 8914130.779771246016026, 1461264.132396421162412 ], [ 8914141.044391393661499, 1461264.169870981015265 ], [ 8914141.081625724211335, 1461253.839581896085292 ], [ 8914192.404712092131376, 1461254.026897143572569 ], [ 8914192.628000609576702, 1461192.045231738360599 ], [ 8914182.363405086100101, 1461192.007777870399877 ], [ 8914182.623921597376466, 1461119.696004978148267 ], [ 8914192.888491090387106, 1461119.733456867514178 ], [ 8914192.925702890381217, 1461109.403218091465533 ], [ 8914223.719401903450489, 1461109.515550457173958 ], [ 8914223.868201678618789, 1461068.194628906669095 ], [ 8914193.074547287076712, 1461068.082299932837486 ], [ 8914193.000125652179122, 1461088.742751623503864 ], [ 8914141.6773367729038, 1461088.555458998074755 ], [ 8914141.863481711596251, 1461036.904364546760917 ], [ 8914172.657098419964314, 1461037.016747106332332 ], [ 8914172.768748546019197, 1461006.026132219703868 ], [ 8914121.446111207827926, 1461005.838813485344872 ], [ 8914121.371640890836716, 1461026.499216887867078 ], [ 8914070.048973403871059, 1461026.311801775591448 ], [ 8914070.23524004034698, 1460974.660828050225973 ], [ 8914111.293299105018377, 1460974.810761964181438 ], [ 8914111.516720551997423, 1460912.829708602046594 ], [ 8914060.194258961826563, 1460912.642290344461799 ], [ 8914060.380528710782528, 1460860.991521196439862 ], [ 8914111.702897353097796, 1460861.178932378999889 ], [ 8914111.665662555024028, 1460871.509080236544833 ], [ 8914142.45909827016294, 1460871.621482896385714 ], [ 8914142.60799116268754, 1460830.300910235615447 ], [ 8914152.872455425560474, 1460830.338369174627587 ], [ 8914152.984110988676548, 1460799.347977612866089 ], [ 8914132.455205049365759, 1460799.273057690123096 ], [ 8914132.641329204663634, 1460747.622481784550473 ], [ 8914142.905763447284698, 1460747.659942202502862 ], [ 8914143.01742341555655, 1460716.669640130829066 ], [ 8914184.075118582695723, 1460716.819440996041521 ], [ 8914184.372747171670198, 1460634.178788924589753 ], [ 8914174.108352694660425, 1460634.141346582211554 ], [ 8914174.331584634259343, 1460572.161014333134517 ], [ 8914205.124701999127865, 1460572.273325050249696 ], [ 8914205.199088092893362, 1460551.613242147490382 ], [ 8914235.992185685783625, 1460551.725517502520233 ], [ 8914236.103729268535972, 1460520.735418301774189 ], [ 8914195.046310978010297, 1460520.585713738342747 ], [ 8914195.269479762762785, 1460458.605621821014211 ], [ 8914226.06247615814209, 1460458.71790076745674 ], [ 8914226.099658822640777, 1460448.387897524051368 ], [ 8914236.363987797871232, 1460448.425316076492891 ], [ 8914236.438344849273562, 1460427.765320101985708 ], [ 8914246.702666675671935, 1460427.802734348457307 ], [ 8914246.77701517008245, 1460407.142752579413354 ], [ 8914257.04132984392345, 1460407.180162520380691 ], [ 8914257.078499952331185, 1460396.850176891544834 ], [ 8914287.871434506028891, 1460396.962383425794542 ], [ 8914287.982909701764584, 1460365.972446152707562 ], [ 8914277.718609051778913, 1460365.935048562008888 ], [ 8914277.941574160009623, 1460303.955275401938707 ], [ 8914257.413018299266696, 1460303.88047238974832 ], [ 8914257.67318350635469, 1460231.570908983238041 ], [ 8914226.880429862067103, 1460231.458682348020375 ], [ 8914226.731721119955182, 1460272.778407323872671 ], [ 8914175.410396341234446, 1460272.591282483423129 ], [ 8914175.596374467015266, 1460220.941642559831962 ], [ 8914155.067883685231209, 1460220.866769271669909 ], [ 8914155.291092749685049, 1460158.887326589785516 ], [ 8914175.819538943469524, 1460158.96219648513943 ], [ 8914175.931117383763194, 1460127.972523286007345 ], [ 8914155.4026934877038, 1460127.897655087290332 ], [ 8914155.551490535959601, 1460086.578144767554477 ], [ 8914124.758901387453079, 1460086.4658178165555 ], [ 8914124.6844811309129, 1460107.125563896028325 ], [ 8914052.835064277052879, 1460106.863332836190239 ], [ 8914052.984007699415088, 1460065.54386336542666 ], [ 8914022.191449284553528, 1460065.431425930233672 ], [ 8914022.116955840960145, 1460086.09115158370696 ], [ 8913970.795993624255061, 1460085.903678239556029 ], [ 8913970.870524223893881, 1460065.24395541776903 ], [ 8913950.342156169936061, 1460065.168941037962213 ], [ 8913950.453972248360515, 1460034.17938619130291 ], [ 8913899.133112778887153, 1460033.991789052030072 ], [ 8913899.46871299482882, 1459941.023336597718298 ], [ 8913889.204575384035707, 1459940.98580850334838 ], [ 8913889.24186660349369, 1459930.655999192269519 ], [ 8913837.921201355755329, 1459930.468304054578766 ], [ 8913838.03312904946506, 1459899.478902521543205 ], [ 8913817.504887215793133, 1459899.403799995547161 ], [ 8913817.728779569268227, 1459837.425099990563467 ], [ 8913807.46468136459589, 1459837.387544821482152 ], [ 8913807.501999484375119, 1459827.05777468951419 ], [ 8913735.65334596298635, 1459826.794785807607695 ], [ 8913735.728033363819122, 1459806.135260588489473 ], [ 8913663.879445683211088, 1459805.872092487057671 ], [ 8913664.14102472178638, 1459733.563884396804497 ], [ 8913674.405081825330853, 1459733.601489066379145 ], [ 8913674.479808723554015, 1459712.942033688770607 ], [ 8913684.743858680129051, 1459712.979634052375332 ], [ 8913684.855935763567686, 1459681.990477811079472 ], [ 8913602.743633165955544, 1459681.689577046316117 ], [ 8913602.818409241735935, 1459661.030162550974637 ], [ 8913561.762294441461563, 1459660.879624724155292 ], [ 8913561.837099101394415, 1459640.220227265264839 ], [ 8913531.045038254931569, 1459640.107286349637434 ], [ 8913530.970211308449507, 1459660.766682102577761 ], [ 8913469.386052682995796, 1459660.540695927338675 ], [ 8913469.46092420257628, 1459639.881303588859737 ], [ 8913428.404853826388717, 1459639.730573651846498 ], [ 8913428.554652901366353, 1459598.411837814142928 ], [ 8913418.290650870651007, 1459598.374147124355659 ], [ 8913418.328103646636009, 1459588.044472675072029 ], [ 8913408.064105615019798, 1459588.006778531242162 ], [ 8913408.139017743989825, 1459567.347441272810102 ], [ 8913387.611037388443947, 1459567.272042910102755 ], [ 8913387.648500455543399, 1459556.942380386171862 ], [ 8913315.80060413107276, 1459556.678370366571471 ], [ 8913315.838092915713787, 1459546.348713526502252 ], [ 8913285.046152740716934, 1459546.235511161386967 ], [ 8913285.271146345883608, 1459484.257652747444808 ], [ 8913254.47927557490766, 1459484.144421874079853 ], [ 8913254.441766206175089, 1459494.474054862512276 ], [ 8913192.858010040596128, 1459494.247490485198796 ], [ 8913192.895541692152619, 1459483.917859208770096 ], [ 8913182.631587037816644, 1459483.880085682263598 ], [ 8913182.706656916067004, 1459463.220834769308567 ], [ 8913151.914816940203309, 1459463.107493476942182 ], [ 8913151.764631479978561, 1459504.426006636582315 ], [ 8913100.44482958316803, 1459504.237024017143995 ], [ 8913100.407263938337564, 1459514.566660103853792 ], [ 8913028.559527214616537, 1459514.301925449864939 ], [ 8913028.634710216894746, 1459493.642660966608673 ], [ 8912987.578896624967456, 1459493.49130407650955 ], [ 8912987.616502555087209, 1459483.161678513046354 ], [ 8912946.560708368197083, 1459483.010262963362038 ], [ 8912946.673569023609161, 1459452.021411845227703 ], [ 8912936.409632328897715, 1459451.983549471246079 ], [ 8912936.484878769144416, 1459431.324334413744509 ], [ 8912905.693092677742243, 1459431.210726584307849 ], [ 8912905.730726612731814, 1459420.881125448504463 ], [ 8912895.466802198439837, 1459420.843248982913792 ], [ 8912895.730257775634527, 1459348.536146345781162 ], [ 8912864.938564226031303, 1459348.422500535380095 ], [ 8912865.051502913236618, 1459317.433800181373954 ], [ 8912854.787616772577167, 1459317.395911628846079 ], [ 8912854.82526614703238, 1459307.066352509427816 ], [ 8912834.297502147033811, 1459306.990564764710143 ], [ 8912834.335158662870526, 1459296.661009907722473 ], [ 8912803.543525941669941, 1459296.547301121288911 ], [ 8912803.807191556319594, 1459224.240526435663924 ], [ 8912773.015639377757907, 1459224.12679003062658 ], [ 8912773.204019112512469, 1459172.479208799311891 ], [ 8912762.940187523141503, 1459172.441290623042732 ], [ 8912762.97786632925272, 1459162.111785730812699 ], [ 8912701.394905047491193, 1459161.884199918946251 ], [ 8912701.50800659134984, 1459130.89571253512986 ], [ 8912691.244191845878959, 1459130.857769347727299 ], [ 8912691.357301961630583, 1459099.869316024007276 ], [ 8912660.565892858430743, 1459099.755466622766107 ], [ 8912660.60360679961741, 1459089.425990420160815 ], [ 8912640.076009580865502, 1459089.350072709377855 ], [ 8912640.151451459154487, 1459068.691132517065853 ], [ 8912619.623870233073831, 1459068.615201008040458 ], [ 8912619.850233569741249, 1459006.638472403166816 ], [ 8912548.003864206373692, 1459006.372606474207714 ], [ 8912548.456871913745999, 1458882.419571737293154 ], [ 8912568.984315488487482, 1458882.495545222423971 ], [ 8912569.097538718953729, 1458851.507367803016677 ], [ 8912486.987860357388854, 1458851.203391089569777 ], [ 8912487.327781902626157, 1458758.239078665617853 ], [ 8912477.064106801524758, 1458758.201067350571975 ], [ 8912477.215190464630723, 1458716.883692198432982 ], [ 8912466.951530497521162, 1458716.845678296405822 ], [ 8912466.989304412156343, 1458706.516344015253708 ], [ 8912436.198337357491255, 1458706.402280759532005 ], [ 8912436.236122122034431, 1458696.072951027657837 ], [ 8912374.654218003153801, 1458695.844725380884483 ], [ 8912374.729831213131547, 1458675.186080431332812 ], [ 8912343.938905283808708, 1458675.071918903617188 ], [ 8912343.901087686419487, 1458685.401238671503961 ], [ 8912323.373797740787268, 1458685.325111733283848 ], [ 8912323.335972433909774, 1458695.654434613185003 ], [ 8912313.072324177250266, 1458695.616365253692493 ], [ 8912312.807513035833836, 1458767.921726656612009 ], [ 8912302.543839082121849, 1458767.883651546668261 ], [ 8912302.506004061549902, 1458778.213003353448585 ], [ 8912240.923944083973765, 1458777.984472514595836 ], [ 8912241.075371533632278, 1458736.667094323551282 ], [ 8912189.757070332765579, 1458736.476554985158145 ], [ 8912189.946440996602178, 1458684.829922423465177 ], [ 8912066.782770048826933, 1458684.372264272999018 ], [ 8912066.820687862113118, 1458674.042952283285558 ], [ 8912025.76615490205586, 1458673.89028118387796 ], [ 8912025.728222239762545, 1458684.219592019217089 ], [ 8912005.200950058177114, 1458684.143233479931951 ], [ 8912005.163009686395526, 1458694.472547425888479 ], [ 8911994.899370312690735, 1458694.434362264582887 ], [ 8911994.823481284081936, 1458715.093000642489642 ], [ 8911974.296188553795218, 1458715.016617957968265 ], [ 8911974.220283528789878, 1458735.675269932020456 ], [ 8911963.956630170345306, 1458735.637072408571839 ], [ 8911963.918673515319824, 1458745.96640363894403 ], [ 8911953.655016731470823, 1458745.928202091250569 ], [ 8911953.617056079208851, 1458756.257536720717326 ], [ 8911933.089735949411988, 1458756.181121840840206 ], [ 8911932.975829994305968, 1458787.169146123109385 ], [ 8911943.239501053467393, 1458787.207356297643855 ], [ 8911942.897801091894507, 1458880.171630895929411 ], [ 8911901.842984946444631, 1458880.018757385434583 ], [ 8911901.805002000182867, 1458890.348138514906168 ], [ 8911891.54129496961832, 1458890.309910508571193 ], [ 8911891.389345457777381, 1458931.627470753388479 ], [ 8911881.125623866915703, 1458931.58923785481602 ], [ 8911881.087632058188319, 1458941.918636847753078 ], [ 8911860.560182310640812, 1458941.842159264022484 ], [ 8911860.484182981774211, 1458962.500967159168795 ], [ 8911829.692988241091371, 1458962.386221027933061 ], [ 8911829.654977008700371, 1458972.715629640966654 ], [ 8911778.336306294426322, 1458972.524309917585924 ], [ 8911778.374336089938879, 1458962.194902750430629 ], [ 8911768.110606521368027, 1458962.156627886462957 ], [ 8911768.186672674492002, 1458941.497825196012855 ], [ 8911727.131786981597543, 1458941.344690691446885 ], [ 8911726.941545192152262, 1458992.991719293408096 ], [ 8911747.469024587422609, 1458993.068296911893412 ], [ 8911747.278812728822231, 1459044.715420620283112 ], [ 8911634.377486098557711, 1459044.294042847584933 ], [ 8911634.415569886565208, 1459033.964613913325593 ], [ 8911603.624316170811653, 1459033.849615105427802 ], [ 8911603.700505156069994, 1459013.190770040731877 ], [ 8911572.909276310354471, 1459013.07573934388347 ], [ 8911572.947381507605314, 1459002.746323213912547 ], [ 8911562.683642847463489, 1459002.707972465083003 ], [ 8911562.874183079227805, 1458951.060948591446504 ], [ 8911542.346743749454618, 1458950.984238784294575 ], [ 8911542.422972675412893, 1458930.325456213206053 ], [ 8911532.159260867163539, 1458930.287096285261214 ], [ 8911532.273613231256604, 1458899.298950960626826 ], [ 8911522.009912848472595, 1458899.260588166071102 ], [ 8911522.048033438622952, 1458888.931214057840407 ], [ 8911501.520640963688493, 1458888.854477840941399 ], [ 8911501.635023277252913, 1458857.866379385115579 ], [ 8911491.371338607743382, 1458857.828006542520598 ], [ 8911491.447599466890097, 1458837.169293259270489 ], [ 8911470.920245843008161, 1458837.092537526739761 ], [ 8911471.034657241776586, 1458806.104497003369033 ], [ 8911450.507327044382691, 1458806.027728068176657 ], [ 8911450.659901233389974, 1458764.710394655354321 ], [ 8911440.396251415833831, 1458764.67200574465096 ], [ 8911440.472544202581048, 1458744.013361745979637 ], [ 8911430.208902096375823, 1458743.974969680421054 ], [ 8911430.247051769867539, 1458733.645653503015637 ], [ 8911399.456138322129846, 1458733.530455761821941 ], [ 8911399.341655030846596, 1458764.518412745092064 ], [ 8911348.023416044190526, 1458764.326337441802025 ], [ 8911348.214312883093953, 1458712.679768168600276 ], [ 8911327.687056427821517, 1458712.602914802264422 ], [ 8911327.954351834952831, 1458640.297876770142466 ], [ 8911297.163547266274691, 1458640.182574804872274 ], [ 8911297.469099478796124, 1458557.548473849194124 ], [ 8911256.41481619887054, 1458557.394694900838658 ], [ 8911256.873287986963987, 1458433.443999891169369 ], [ 8911215.819187469780445, 1458433.290175136178732 ], [ 8911215.972061526030302, 1458391.97339943703264 ], [ 8911174.918025011196733, 1458391.819519578944892 ], [ 8911175.109185293316841, 1458340.173638725886121 ], [ 8911195.636165866628289, 1458340.250583215150982 ], [ 8911195.750836301594973, 1458309.263097198912874 ], [ 8911175.223877994343638, 1458309.186154454480857 ], [ 8911175.338568089529872, 1458278.198703363304958 ], [ 8911124.021233042702079, 1458278.006285513984039 ], [ 8911124.059481048956513, 1458267.677143978187814 ], [ 8911113.796018619090319, 1458267.638649496482685 ], [ 8911114.025522846728563, 1458205.663879443658516 ], [ 8911072.971765069290996, 1458205.509871159913018 ], [ 8911073.010029602795839, 1458195.180756884859875 ], [ 8911011.429423885419965, 1458194.94963418203406 ], [ 8911011.544282533228397, 1458163.962318716803566 ], [ 8911001.280860392376781, 1458163.923786071361974 ], [ 8911001.319149740040302, 1458153.594688580138609 ], [ 8910970.528896184638143, 1458153.479069112800062 ], [ 8910970.490595705807209, 1458163.808165729278699 ], [ 8910898.646654915064573, 1458163.53825424076058 ], [ 8910898.876609265804291, 1458101.563742076745257 ], [ 8910888.613212574273348, 1458101.525170106440783 ], [ 8910888.651540994644165, 1458091.196097939042374 ], [ 8910816.807798242196441, 1458090.925991641590372 ], [ 8910816.884506152942777, 1458070.267862449167296 ], [ 8910775.830974930897355, 1458070.113436184823513 ], [ 8910775.869343291968107, 1458059.784378285519779 ], [ 8910765.605964921414852, 1458059.745762676699087 ], [ 8910765.644336700439453, 1458049.4167087553069 ], [ 8910734.854214463382959, 1458049.300840403418988 ], [ 8910734.815831553190947, 1458059.629893448669463 ], [ 8910683.498948415741324, 1458059.436703393468633 ], [ 8910683.690952809527516, 1458007.791482329834253 ], [ 8910622.110813932493329, 1458007.559539819601923 ], [ 8910622.1492361985147, 1457997.230508418520913 ], [ 8910611.885884445160627, 1457997.191838558297604 ], [ 8910611.924310130998492, 1457986.86281113489531 ], [ 8910529.817536259070039, 1457986.553320185746998 ], [ 8910529.932900605723262, 1457955.566267052199692 ], [ 8910499.14289859123528, 1457955.450148976640776 ], [ 8910499.258293705061078, 1457924.463131648488343 ], [ 8910468.468327699229121, 1457924.346982607385144 ], [ 8910468.429851822555065, 1457934.675983819179237 ], [ 8910417.113229084759951, 1457934.482325952500105 ], [ 8910417.190217642113566, 1457913.824330143164843 ], [ 8910355.610324485227466, 1457913.59182101720944 ], [ 8910355.571808094158769, 1457923.920815320918337 ], [ 8910242.675323756411672, 1457923.494196298299357 ], [ 8910242.829550789669156, 1457882.178254100959748 ], [ 8910201.776351863518357, 1457882.023012605961412 ], [ 8910201.699209254235029, 1457902.680973986163735 ], [ 8910150.38268006592989, 1457902.486835183575749 ], [ 8910150.459859769791365, 1457881.828876740066335 ], [ 8910129.933264976367354, 1457881.75119626079686 ], [ 8910129.971861811354756, 1457871.422223154921085 ], [ 8910068.392106698825955, 1457871.189093882916495 ], [ 8910068.46934400126338, 1457850.531162252882496 ], [ 8910037.679492646828294, 1457850.414548982400447 ], [ 8910037.834008259698749, 1457809.098733474500477 ], [ 8910007.044204048812389, 1457808.982090134406462 ], [ 8910006.966924570500851, 1457829.639988753711805 ], [ 8909996.703649666160345, 1457829.601099586347118 ], [ 8909996.510427307337523, 1457881.245909156044945 ], [ 8909986.247134149074554, 1457881.207014785148203 ], [ 8909986.208485089242458, 1457891.53598746098578 ], [ 8909965.681892231106758, 1457891.458186929812655 ], [ 8909965.643235459923744, 1457901.787162703694776 ], [ 8909914.326739883050323, 1457901.592594573274255 ], [ 8909914.210712173953652, 1457932.579539591446519 ], [ 8909945.000642029568553, 1457932.69629431865178 ], [ 8909944.961976669728756, 1457943.025284245377406 ], [ 8909955.225290914997458, 1457943.064195315120742 ], [ 8909955.186628974974155, 1457953.393189222086221 ], [ 8910006.503223141655326, 1457953.587690040934831 ], [ 8910006.387291206046939, 1457984.574698287528008 ], [ 8910016.650622045621276, 1457984.613588133361191 ], [ 8910016.611981192603707, 1457994.942598547786474 ], [ 8910037.138651169836521, 1457995.020367627032101 ], [ 8910036.906844425946474, 1458056.994511043652892 ], [ 8910016.380129929631948, 1458056.916738435393199 ], [ 8910016.30284383520484, 1458077.574814551509917 ], [ 8909975.249388672411442, 1458077.419222178868949 ], [ 8909975.210730347782373, 1458087.748264589346945 ], [ 8909923.89389942586422, 1458087.553688642568886 ], [ 8909923.932576300576329, 1458077.224647703114897 ], [ 8909882.87913167104125, 1458077.06892091431655 ], [ 8909882.917823093011975, 1458066.739884838927537 ], [ 8909841.864397987723351, 1458066.584099488100037 ], [ 8909841.786985170096159, 1458087.24217296927236 ], [ 8909831.523622203618288, 1458087.203216708265245 ], [ 8909831.407489649951458, 1458118.190353691577911 ], [ 8909862.197612812742591, 1458118.307213924592361 ], [ 8909861.965406578034163, 1458180.281592717859894 ], [ 8909872.228803813457489, 1458180.320540428161621 ], [ 8909872.112707873806357, 1458211.307780471863225 ], [ 8909902.902934728190303, 1458211.424603847786784 ], [ 8909902.825558232143521, 1458232.082784075289965 ], [ 8909933.615809982642531, 1458232.19957561022602 ], [ 8909933.38374026492238, 1458294.174210065277293 ], [ 8909943.647180363535881, 1458294.213134873891249 ], [ 8909943.492476208135486, 1458335.529632751597092 ], [ 8909953.755931442603469, 1458335.56855500349775 ], [ 8909953.523888695985079, 1458397.543414185056463 ], [ 8909984.314322948455811, 1458397.660163830034435 ], [ 8909984.275659264996648, 1458407.989320813678205 ], [ 8909994.539141645655036, 1458408.028230186318979 ], [ 8909994.152525845915079, 1458511.320005744230002 ], [ 8910004.416045628488064, 1458511.358914323616773 ], [ 8910004.338726382702589, 1458532.017314268043265 ], [ 8910014.602253880351782, 1458532.056219701189548 ], [ 8910013.597093727439642, 1458800.616768846521154 ], [ 8910023.86071801930666, 1458800.65567819098942 ], [ 8910023.590090187266469, 1458872.960869415430352 ], [ 8910054.381042772904038, 1458873.077581209130585 ], [ 8910054.419693632051349, 1458862.748256230959669 ], [ 8910116.001584419980645, 1458862.981577184051275 ], [ 8910116.040212713181973, 1458852.65225413069129 ], [ 8910208.41303520463407, 1458853.00198074313812 ], [ 8910208.490224098786712, 1458832.343340412946418 ], [ 8910352.181224351748824, 1458832.886749895522371 ], [ 8910351.911421908065677, 1458905.192084342706949 ], [ 8910403.229780063033104, 1458905.385991964256391 ], [ 8910403.037148095667362, 1458957.032777400920168 ], [ 8910351.718697132542729, 1458956.838862451491877 ], [ 8910351.79578791745007, 1458936.180140143726021 ], [ 8910321.004743112251163, 1458936.063748098909855 ], [ 8910320.69628387875855, 1459018.698718815809116 ], [ 8910361.751129668205976, 1459018.853910119039938 ], [ 8910361.635497195646167, 1459049.842088516568765 ], [ 8910392.42666801251471, 1459049.95844540046528 ], [ 8910392.195462025702, 1459111.934907064540312 ], [ 8910361.404224378988147, 1459111.818544904701412 ], [ 8910361.057295482605696, 1459204.783478480065241 ], [ 8910381.58485378883779, 1459204.861062266631052 ], [ 8910381.4692278560251, 1459235.849441618891433 ], [ 8910391.733018584549427, 1459235.888228786177933 ], [ 8910391.694479737430811, 1459246.217696241801605 ], [ 8910401.958274472504854, 1459246.256479965057224 ], [ 8910401.765594428405166, 1459297.903874044539407 ], [ 8910412.0294080208987, 1459297.942655496532097 ], [ 8910411.990874852985144, 1459308.27214567316696 ], [ 8910422.254692448303103, 1459308.31092368112877 ], [ 8910422.216162702068686, 1459318.640417839633301 ], [ 8910442.743806196376681, 1459318.717963228933513 ], [ 8910442.705283584073186, 1459329.047461663372815 ], [ 8910514.552070980891585, 1459329.318754856241867 ], [ 8910514.244087561964989, 1459411.954891550121829 ], [ 8910503.980230208486319, 1459411.91614424972795 ], [ 8910503.826216656714678, 1459453.234299974748865 ], [ 8910483.298473114147782, 1459453.156791818328202 ], [ 8910483.028886198997498, 1459525.463702292414382 ], [ 8910421.445506576448679, 1459525.231075817951933 ], [ 8910421.2913613691926, 1459566.549384521553293 ], [ 8910431.555272100493312, 1459566.58816611696966 ], [ 8910431.516738783568144, 1459576.917752810986713 ], [ 8910441.780653521418571, 1459576.956530961673707 ], [ 8910441.626532200723886, 1459618.274915809277445 ], [ 8910451.890462083742023, 1459618.313691393705085 ], [ 8910451.851934740319848, 1459628.643297123489901 ], [ 8910472.379802811890841, 1459628.720837664790452 ], [ 8910472.302762106060982, 1459649.38006136729382 ], [ 8910482.566704006865621, 1459649.418826616136357 ], [ 8910482.489669565111399, 1459670.078065665438771 ], [ 8910492.753619188442826, 1459670.116827761987224 ], [ 8910492.638076484203339, 1459701.105714891338721 ], [ 8910502.902037540450692, 1459701.144474128261209 ], [ 8910502.863526437431574, 1459711.474110845476389 ], [ 8910513.127491500228643, 1459711.512866636738181 ], [ 8910512.93495019339025, 1459763.161107040941715 ], [ 8910523.198934119194746, 1459763.19986055791378 ], [ 8910523.006404111161828, 1459814.848194688791409 ], [ 8910533.27040689997375, 1459814.886945931473747 ], [ 8910533.231903741136193, 1459825.21662412234582 ], [ 8910543.495910536497831, 1459825.255371919134632 ], [ 8910543.457410799339414, 1459835.585054093273357 ], [ 8910553.721421601250768, 1459835.623798443702981 ], [ 8910553.56743460521102, 1459876.942565219243988 ], [ 8910563.831460556015372, 1459876.981307001784444 ], [ 8910563.754472743719816, 1459897.640713120577857 ], [ 8910574.018506415188313, 1459897.679451749892905 ], [ 8910573.941524866968393, 1459918.338873216416687 ], [ 8910584.205566260963678, 1459918.377608692273498 ], [ 8910584.090102903544903, 1459949.366769453044981 ], [ 8910594.354155732318759, 1459949.40550206718035 ], [ 8910594.200215376913548, 1459990.724435926880687 ], [ 8910604.464283358305693, 1459990.763165972195566 ], [ 8910604.425801256671548, 1460001.092908957740292 ], [ 8910614.689873244613409, 1460001.131635556695983 ], [ 8910614.651394568383694, 1460011.461382525740191 ], [ 8910624.915470561012626, 1460011.500105678336695 ], [ 8910624.60766040161252, 1460094.138216655235738 ], [ 8910645.135872708633542, 1460094.215656422777101 ], [ 8910645.09740255959332, 1460104.545437490800396 ], [ 8910655.361512865871191, 1460104.584152057766914 ], [ 8910655.323046144098043, 1460114.913937110221013 ], [ 8910675.851275056600571, 1460114.991355611709878 ], [ 8910675.774355601519346, 1460135.650937960017473 ], [ 8910686.038477923721075, 1460135.689642185578123 ], [ 8910686.000021476298571, 1460146.019439189694822 ], [ 8910696.264147806912661, 1460146.058139968663454 ], [ 8910696.033425312489271, 1460208.037001268938184 ], [ 8910644.712685097008944, 1460207.843451208202168 ], [ 8910644.751158149912953, 1460197.513633224181831 ], [ 8910634.487014696002007, 1460197.474912285571918 ], [ 8910634.525491176173091, 1460187.145098285982385 ], [ 8910603.733073702082038, 1460187.028913910035044 ], [ 8910603.694586073979735, 1460197.358727032551542 ], [ 8910572.902160070836544, 1460197.242508123395965 ], [ 8910572.863661006093025, 1460207.572324059903622 ], [ 8910552.33537102676928, 1460207.494825503556058 ], [ 8910552.296864237636328, 1460217.824644546490163 ], [ 8910521.50442030467093, 1460217.70836778706871 ], [ 8910521.465902077034116, 1460228.038189643761143 ], [ 8910511.201750967651606, 1460227.999422951834276 ], [ 8910511.163228733465075, 1460238.329248207388446 ], [ 8910490.634919950738549, 1460238.25170301925391 ], [ 8910490.59638999402523, 1460248.581531381001696 ], [ 8910480.332232324406505, 1460248.542752884095535 ], [ 8910480.293698359280825, 1460258.872584644472227 ], [ 8910470.029537264257669, 1460258.833802115172148 ], [ 8910469.990999294444919, 1460269.163637275574729 ], [ 8910459.726834775879979, 1460269.124850713182241 ], [ 8910459.688292795792222, 1460279.454689271980897 ], [ 8910449.424124851822853, 1460279.415898677427322 ], [ 8910449.385578867048025, 1460289.745740634854883 ], [ 8910439.121407497674227, 1460289.706946007208899 ], [ 8910439.082857504487038, 1460300.036791363731027 ], [ 8910377.497813113033772, 1460299.803943304810673 ], [ 8910377.574957400560379, 1460279.144259800901636 ], [ 8910357.046626465395093, 1460279.066615035058931 ], [ 8910357.085205603390932, 1460268.736779407365248 ], [ 8910346.821044288575649, 1460268.697951707988977 ], [ 8910346.859626851975918, 1460258.368120065191761 ], [ 8910336.595469545572996, 1460258.329288919223472 ], [ 8910336.634055532515049, 1460247.999461262021214 ], [ 8910326.369902234524488, 1460247.960626669460908 ], [ 8910326.408491645008326, 1460237.630802997387946 ], [ 8910316.144342355430126, 1460237.591964958701283 ], [ 8910316.182935191318393, 1460227.262145271291956 ], [ 8910285.390500212088227, 1460227.145609597675502 ], [ 8910285.62211798876524, 1460165.166774281766266 ], [ 8910234.301510335877538, 1460164.972482169978321 ], [ 8910234.340130856260657, 1460154.642690672306344 ], [ 8910224.07601391710341, 1460154.603821324883029 ], [ 8910224.114637861028314, 1460144.274033812340349 ], [ 8910213.850524928420782, 1460144.235161018790677 ], [ 8910213.88915229588747, 1460133.905377492075786 ], [ 8910193.360934739932418, 1460133.827621274860576 ], [ 8910193.43820346146822, 1460113.168066469253972 ], [ 8910152.381801577284932, 1460113.012511511798948 ], [ 8910152.420450361445546, 1460102.682740821037441 ], [ 8910121.628163162618876, 1460102.566036221338436 ], [ 8910121.705482149496675, 1460081.906507677631453 ], [ 8910080.649133030325174, 1460081.750851546181366 ], [ 8910080.687806949019432, 1460071.4210939866025 ], [ 8910049.895559325814247, 1460071.304313507862389 ], [ 8910049.934244096279144, 1460060.974560522008687 ], [ 8909988.349779035896063, 1460060.740900370758027 ], [ 8909988.31107197329402, 1460071.07065159175545 ], [ 8909978.04699177108705, 1460071.031694851815701 ], [ 8909978.008280700072646, 1460081.361449470045045 ], [ 8909957.480113742873073, 1460081.283524183789268 ], [ 8909957.441394947469234, 1460091.613281904952601 ], [ 8909947.177308194339275, 1460091.574313358170912 ], [ 8909947.138585390523076, 1460101.904074475867674 ], [ 8909916.346315734088421, 1460101.78714551939629 ], [ 8909916.30758149176836, 1460112.116909445263445 ], [ 8909895.779395755380392, 1460112.038937521865591 ], [ 8909895.740653788670897, 1460122.368704550666735 ], [ 8909844.420175991952419, 1460122.173707830253989 ], [ 8909844.458936536684632, 1460111.843942274572328 ], [ 8909803.402574433013797, 1460111.687878768891096 ], [ 8909803.286247335374355, 1460142.677182974759489 ], [ 8909813.550348568707705, 1460142.71620534430258 ], [ 8909813.317708754912019, 1460204.6949151980225 ], [ 8909761.997094050049782, 1460204.499757112702355 ], [ 8909761.958301141858101, 1460214.829553534975275 ], [ 8909751.69417536444962, 1460214.790510404156521 ], [ 8909751.616581238806248, 1460235.450113734928891 ], [ 8909690.031788144260645, 1460235.215772879775614 ], [ 8909690.070607647299767, 1460224.885971137788147 ], [ 8909649.014099646359682, 1460224.729670288274065 ], [ 8909648.781089037656784, 1460286.708529030205682 ], [ 8909597.460349161177874, 1460286.513059969525784 ], [ 8909597.343784155324101, 1460317.502534752711654 ], [ 8909546.022995879873633, 1460317.306967766257003 ], [ 8909545.945247244089842, 1460337.966633127536625 ], [ 8909443.303618405014277, 1460337.575212753145024 ], [ 8909443.225794274359941, 1460358.234886970836669 ], [ 8909422.697457168251276, 1460358.156556833535433 ], [ 8909422.658537229523063, 1460368.486398888984695 ], [ 8909412.394365401938558, 1460368.447227914817631 ], [ 8909412.355441451072693, 1460378.777073366334662 ], [ 8909402.091266201809049, 1460378.737898356281221 ], [ 8909401.779834279790521, 1460461.376792523544282 ], [ 8909360.723017299547791, 1460461.220045613124967 ], [ 8909360.606180876493454, 1460492.209688297938555 ], [ 8909391.39882661961019, 1460492.32725675473921 ], [ 8909391.43776123970747, 1460481.997371278936043 ], [ 8909442.758824776858091, 1460482.193242420442402 ], [ 8909442.525324149057269, 1460544.172619534423575 ], [ 8909452.789560040459037, 1460544.211784315994009 ], [ 8909452.71173157915473, 1460564.871606819331646 ], [ 8909473.240219106897712, 1460564.949926343979314 ], [ 8909473.006771268323064, 1460626.929486026987433 ], [ 8909421.685443149879575, 1460626.733650289243087 ], [ 8909421.763297438621521, 1460606.073785247979686 ], [ 8909390.970526397228241, 1460605.956240691011772 ], [ 8909390.931588249281049, 1460616.286170477978885 ], [ 8909329.346031807363033, 1460616.050978591665626 ], [ 8909329.112262923270464, 1460678.030624206410721 ], [ 8909318.847982244566083, 1460677.991410689661279 ], [ 8909318.731082677841187, 1460708.981282463530079 ], [ 8909287.938208954408765, 1460708.863616803195328 ], [ 8909287.899230690672994, 1460719.193580558989197 ], [ 8909205.784883983433247, 1460718.879638494225219 ], [ 8909205.667858216911554, 1460749.869544808054343 ], [ 8909154.346345342695713, 1460749.67320498987101 ], [ 8909154.424399988725781, 1460729.013266718946397 ], [ 8909051.781470704823732, 1460728.620312437647954 ], [ 8909051.508014073595405, 1460800.930140248034149 ], [ 8909030.979379717260599, 1460800.851500344229862 ], [ 8909030.940305868163705, 1460811.181489925133064 ], [ 8908969.354387573897839, 1460810.945478642825037 ], [ 8908969.315291125327349, 1460821.275470135267824 ], [ 8908866.672080427408218, 1460820.881815730361268 ], [ 8908866.632946508005261, 1460831.211807943880558 ], [ 8908825.57565563544631, 1460831.054240238387138 ], [ 8908825.497357172891498, 1460851.714233366306871 ], [ 8908815.233027758076787, 1460851.674831491662189 ], [ 8908815.19387436658144, 1460862.00483329850249 ], [ 8908804.92954153008759, 1460861.965427384944633 ], [ 8908804.812068425118923, 1460892.955454072682187 ], [ 8908815.076412413269281, 1460892.994860878679901 ], [ 8908814.998102968558669, 1460913.654897732893005 ], [ 8908856.055511619895697, 1460913.812489921227098 ], [ 8908856.016371322795749, 1460924.142515078885481 ], [ 8908866.280727945268154, 1460924.181904069846496 ], [ 8908866.163316434249282, 1460955.172002595150843 ], [ 8908876.427684502676129, 1460955.21138873626478 ], [ 8908876.192875808104873, 1461017.191687302896753 ], [ 8908845.3997055683285, 1461017.073512301780283 ], [ 8908845.321411328390241, 1461037.733639589976519 ], [ 8908835.057014403864741, 1461037.694239844568074 ], [ 8908835.017863122746348, 1461048.024308732710779 ], [ 8908814.489062724635005, 1461047.945497421082109 ], [ 8908814.449903711676598, 1461058.27556940773502 ], [ 8908773.392291590571404, 1461058.117900692624971 ], [ 8908773.353117410093546, 1461068.447975183138624 ], [ 8908763.088711399585009, 1461068.408548352075741 ], [ 8908762.931996846571565, 1461109.728882063645869 ], [ 8908711.609896879643202, 1461109.531685825902969 ], [ 8908711.335504876449704, 1461181.842401624890044 ], [ 8908670.27772611938417, 1461181.684568939032033 ], [ 8908670.238511202856898, 1461192.014684782363474 ], [ 8908659.974063534289598, 1461191.975216957274824 ], [ 8908659.934844603762031, 1461202.305336196208373 ], [ 8908547.025898916646838, 1461201.870939857093617 ], [ 8908547.065158750861883, 1461191.540823896648362 ], [ 8908516.271827306598425, 1461191.422274475451559 ], [ 8908516.311097998172045, 1461181.092163104331121 ], [ 8908485.517780378460884, 1461180.973580898018554 ], [ 8908485.321368178352714, 1461232.624170221155509 ], [ 8908444.263541135936975, 1461232.466002252651379 ], [ 8908444.145645631477237, 1461263.456396597437561 ], [ 8908423.616711581125855, 1461263.377288368297741 ], [ 8908423.380867931991816, 1461325.358173228101805 ], [ 8908372.058426441624761, 1461325.160328202648088 ], [ 8908371.940444827079773, 1461356.150816030800343 ], [ 8908402.733942300081253, 1461356.26953696180135 ], [ 8908402.537356121465564, 1461407.9204283838626 ], [ 8908443.595431288704276, 1461408.078676533419639 ], [ 8908443.831244559958577, 1461346.097610744880512 ], [ 8908495.153733629733324, 1461346.295327764702961 ], [ 8908494.918031927198172, 1461408.276402506744489 ], [ 8908453.859950823709369, 1461408.118229213869199 ], [ 8908453.545546259731054, 1461490.759859568905085 ], [ 8908443.280996972694993, 1461490.720304500777274 ], [ 8908443.202385427430272, 1461511.380748443538323 ], [ 8908402.144161492586136, 1461511.222488350002095 ], [ 8908401.947553042322397, 1461562.873656900599599 ], [ 8908432.74127633869648, 1461562.992362064076588 ], [ 8908432.701964914798737, 1461573.322607755893841 ], [ 8908463.495702041313052, 1461573.441280125640333 ], [ 8908463.535002306103706, 1461563.111033538356423 ], [ 8908514.857884852215648, 1461563.308744464768097 ], [ 8908514.93644729629159, 1461542.648259392241016 ], [ 8908566.259300066158175, 1461542.84587375447154 ], [ 8908566.102248381823301, 1461584.166864646831527 ], [ 8908637.954358853399754, 1461584.443375887814909 ], [ 8908637.836645087227225, 1461615.434164118720219 ], [ 8908648.101244641467929, 1461615.473651645472273 ], [ 8908648.022774755954742, 1461636.134196206228808 ], [ 8908678.816597513854504, 1461636.252638113219291 ], [ 8908679.012714214622974, 1461584.601299958536401 ], [ 8908740.600256141275167, 1461584.838073765393347 ], [ 8908740.404251025989652, 1461636.489420854486525 ], [ 8908760.933471234515309, 1461636.568318487843499 ], [ 8908760.894276760518551, 1461646.898599587148055 ], [ 8908914.863521821796894, 1461647.489859005901963 ], [ 8908914.824382850900292, 1461657.820148263126612 ], [ 8908945.618251005187631, 1461657.93829996464774 ], [ 8908945.657378816977143, 1461647.608009815681726 ], [ 8908966.186618290841579, 1461647.686758304713294 ], [ 8908966.225738368928432, 1461637.356471257749945 ], [ 8909017.548823622986674, 1461637.553275484126061 ], [ 8909017.470620369538665, 1461658.21385624492541 ], [ 8909089.323004202917218, 1461658.489229092840105 ], [ 8909089.401155380532146, 1461637.828644176013768 ], [ 8909150.988879824057221, 1461638.06452848855406 ], [ 8909151.106037426739931, 1461607.073673489503562 ], [ 8909192.164481649175286, 1461607.230851270025596 ], [ 8909192.242555486038327, 1461586.570297375321388 ], [ 8909223.036369433626533, 1461586.688139626989141 ], [ 8909223.114419775083661, 1461566.027598735643551 ], [ 8909264.172812739387155, 1461566.184666960034519 ], [ 8909264.250832146033645, 1461545.52413847995922 ], [ 8909274.515423683449626, 1461545.56339558516629 ], [ 8909274.554429227486253, 1461535.233136591501534 ], [ 8909305.348194452002645, 1461535.350884559331462 ], [ 8909305.387188540771604, 1461525.020628372672945 ], [ 8909356.710117874667048, 1461525.216798642184585 ], [ 8909356.671142382547259, 1461535.547056309180334 ], [ 8909428.523281846195459, 1461535.821539544966072 ], [ 8909428.406431710347533, 1461566.812340933363885 ], [ 8909469.464848222211003, 1461566.969109695870429 ], [ 8909469.50378368422389, 1461556.638837687438354 ], [ 8909551.620601065456867, 1461556.952193169621751 ], [ 8909551.581695359200239, 1461567.28246754175052 ], [ 8909602.904734369367361, 1461567.478194538969547 ], [ 8909602.943621477112174, 1461557.147918689530343 ], [ 8909674.795862386003137, 1461557.421777200419456 ], [ 8909674.75700131431222, 1461567.752055117394775 ], [ 8909705.550834408029914, 1461567.869367787148803 ], [ 8909705.511984201148152, 1461578.199650284135714 ], [ 8909746.570447310805321, 1461578.356015950907022 ], [ 8909746.60928263887763, 1461568.025732273701578 ], [ 8909777.403121892362833, 1461568.142966333776712 ], [ 8909777.441945768892765, 1461557.812685467302799 ], [ 8909849.294221583753824, 1461558.086098529631272 ], [ 8909849.216625610366464, 1461578.746668085223064 ], [ 8909910.804346652701497, 1461578.980879685841501 ], [ 8909910.765570543706417, 1461589.311171774053946 ], [ 8910003.147205349057913, 1461589.662239149212837 ], [ 8910003.108462423086166, 1461599.992537582293153 ], [ 8910085.22552078962326, 1461600.304345275275409 ], [ 8910084.954520421102643, 1461672.616554255364463 ], [ 8910146.542482702061534, 1461672.850265147630125 ], [ 8910146.503789512440562, 1461683.180597262224182 ], [ 8910156.768454635515809, 1461683.219536268850788 ], [ 8910156.575002908706665, 1461734.871253747493029 ], [ 8910166.839686922729015, 1461734.910190479364246 ], [ 8910166.684935163706541, 1461776.231632162816823 ], [ 8910176.949634348973632, 1461776.27056632633321 ], [ 8910176.872264156118035, 1461796.931309931678697 ], [ 8910187.136971075087786, 1461796.970240938477218 ], [ 8910187.059607155621052, 1461817.630999915767461 ], [ 8910197.324321806430817, 1461817.669927766080946 ], [ 8910197.169605342671275, 1461858.991491247667 ], [ 8910217.699065282940865, 1461859.069338066736236 ], [ 8910217.660392876714468, 1461869.399738764390349 ], [ 8910238.189861426129937, 1461869.477571194525808 ], [ 8910238.151196168735623, 1461879.807976176030934 ], [ 8910268.945412343367934, 1461879.924697620561346 ], [ 8910268.906757956370711, 1461890.255107179516926 ], [ 8910351.024710355326533, 1461890.566201967885718 ], [ 8910350.870208941400051, 1461931.887886554468423 ], [ 8910422.723536774516106, 1461932.159906133776531 ], [ 8910422.607735784724355, 1461963.15121454349719 ], [ 8910443.137282969430089, 1461963.228902482660487 ], [ 8910443.021501678973436, 1461994.220245919190347 ], [ 8910514.875004136934876, 1461994.492041910067201 ], [ 8910514.759298358112574, 1462025.483424767618999 ], [ 8910555.81849367544055, 1462025.638657897245139 ], [ 8910555.702829927206039, 1462056.630077538080513 ], [ 8910565.967640645802021, 1462056.668877337127924 ], [ 8910565.929089201614261, 1462066.999358237022534 ], [ 8910596.72353426925838, 1462067.115736044943333 ], [ 8910596.569370234385133, 1462108.437700123758987 ], [ 8910627.363862572237849, 1462108.554047740297392 ], [ 8910627.286801133304834, 1462129.215053716907278 ], [ 8910658.081318413838744, 1462129.331369384890422 ], [ 8910658.158357525244355, 1462108.670361653203145 ], [ 8910709.482521599158645, 1462108.864143278915435 ], [ 8910709.444020792841911, 1462119.194646758493036 ], [ 8910781.297888748347759, 1462119.465785796986893 ], [ 8910781.259413700550795, 1462129.796295018866658 ], [ 8910853.11332193389535, 1462130.067252604523674 ], [ 8910853.074872642755508, 1462140.39776756730862 ], [ 8910883.869420262053609, 1462140.513836949365214 ], [ 8910883.946296228095889, 1462119.852808969095349 ], [ 8910955.800198728218675, 1462120.123502371367067 ], [ 8910955.684962490573525, 1462151.115056013455614 ], [ 8911048.068672766909003, 1462151.462828628486022 ], [ 8911048.03029359690845, 1462161.79335652757436 ], [ 8911119.884332751855254, 1462162.063638661289588 ], [ 8911119.769271651282907, 1462193.055250656791031 ], [ 8911232.682913212105632, 1462193.479618576122448 ], [ 8911232.5296580940485, 1462234.801832469180226 ], [ 8911242.794551219791174, 1462234.840390064287931 ], [ 8911242.75624043866992, 1462245.170953071210533 ], [ 8911273.55093271844089, 1462245.286604257067665 ], [ 8911273.58923233486712, 1462234.95604037749581 ], [ 8911283.854126617312431, 1462234.994582992047071 ], [ 8911283.930717542767525, 1462214.333465742878616 ], [ 8911335.255156081169844, 1462214.526119729503989 ], [ 8911335.216879369691014, 1462224.856677958508953 ], [ 8911355.746664252132177, 1462224.933713918318972 ], [ 8911355.708394693210721, 1462235.264276425587013 ], [ 8911365.973291289061308, 1462235.302789078326896 ], [ 8911365.896758750081062, 1462255.963925766758621 ], [ 8911376.161663077771664, 1462256.002435255330056 ], [ 8911376.008609421551228, 1462297.32475416152738 ], [ 8911386.273528922349215, 1462297.363261066377163 ], [ 8911386.197007805109024, 1462318.024443285306916 ], [ 8911406.726862562820315, 1462318.101447021355852 ], [ 8911406.688609011471272, 1462328.432044257642701 ], [ 8911416.953540544956923, 1462328.470540798036382 ], [ 8911416.877040024846792, 1462349.131746943807229 ], [ 8911427.141979288309813, 1462349.170240319566801 ], [ 8911426.912493128329515, 1462411.15394924278371 ], [ 8911437.177455011755228, 1462411.192440615035594 ], [ 8911437.139210030436516, 1462421.523072000825778 ], [ 8911467.934108579531312, 1462421.638524514390156 ], [ 8911467.857640082016587, 1462442.299800121225417 ], [ 8911478.122614286839962, 1462442.338277381379157 ], [ 8911478.084383325651288, 1462452.66892102197744 ], [ 8911519.144297916442156, 1462452.822793766157702 ], [ 8911519.067864906042814, 1462473.484094462124631 ], [ 8911549.862826209515333, 1462473.599461429286748 ], [ 8911549.824620438739657, 1462483.930118194781244 ], [ 8911601.149580320343375, 1462484.122323007322848 ], [ 8911601.111392870545387, 1462494.452984920004383 ], [ 8911683.231373446062207, 1462494.760320152388886 ], [ 8911683.04058076068759, 1462546.413696776842698 ], [ 8911703.570616006851196, 1462546.490496022626758 ], [ 8911703.532464051619172, 1462556.82118302048184 ], [ 8911724.062507892027497, 1462556.897967860801145 ], [ 8911724.024363093078136, 1462567.228659135987982 ], [ 8911754.819442182779312, 1462567.343809169949964 ], [ 8911754.781308263540268, 1462577.674505011877045 ], [ 8911775.311369871720672, 1462577.751253549242392 ], [ 8911775.273243106901646, 1462588.081953668966889 ], [ 8911826.598420780152082, 1462588.273760901298374 ], [ 8911826.636528931558132, 1462577.943059335229918 ], [ 8911847.166594568639994, 1462578.019755426794291 ], [ 8911847.280894966796041, 1462547.027671181596816 ], [ 8911898.606008255854249, 1462547.219341515330598 ], [ 8911898.682169860228896, 1462526.557967617874965 ], [ 8911939.742235887795687, 1462526.711234143935144 ], [ 8911939.780301371589303, 1462516.380551586393267 ], [ 8911960.310328664258122, 1462516.457161795347929 ], [ 8911960.348386414349079, 1462506.126482357736677 ], [ 8911970.613396771252155, 1462506.164781554834917 ], [ 8911970.651450512930751, 1462495.834105526097119 ], [ 8912032.241496343165636, 1462496.063820308540016 ], [ 8912032.20346493460238, 1462506.394498069304973 ], [ 8912062.998502891510725, 1462506.509305756539106 ], [ 8912062.960482362657785, 1462516.83998808148317 ], [ 8912134.815607026219368, 1462517.107743595726788 ], [ 8912134.777612265199423, 1462527.438431638060138 ], [ 8912145.042634945362806, 1462527.476667730603367 ], [ 8912145.004643619060516, 1462537.807359759462997 ], [ 8912155.269670305773616, 1462537.845592394005507 ], [ 8912155.231682414188981, 1462548.176288409857079 ], [ 8912165.496713113039732, 1462548.21451758639887 ], [ 8912165.458728658035398, 1462558.545217588543892 ], [ 8912185.988798355683684, 1462558.621665280777961 ], [ 8912185.950821058824658, 1462568.95236955746077 ], [ 8912206.480899346992373, 1462569.028802841668949 ], [ 8912206.442929210141301, 1462579.359511393588036 ], [ 8912257.768148556351662, 1462579.550530486973003 ], [ 8912257.692244643345475, 1462600.211961566936225 ], [ 8912309.017508376389742, 1462600.40288988663815 ], [ 8912308.789901437237859, 1462662.387280524009839 ], [ 8912329.320053603500128, 1462662.463629083475098 ], [ 8912329.282125558704138, 1462672.794374376302585 ], [ 8912339.547205792739987, 1462672.832543324446306 ], [ 8912339.509281182661653, 1462683.163292604498565 ], [ 8912349.774365426972508, 1462683.201458094175905 ], [ 8912349.698522793129086, 1462703.862968323985115 ], [ 8912359.963614769279957, 1462703.901130642741919 ], [ 8912359.92569674551487, 1462714.231891593197361 ], [ 8912370.190792730078101, 1462714.270050453022122 ], [ 8912370.11496327072382, 1462734.931584026198834 ], [ 8912390.645170988515019, 1462735.007891657296568 ], [ 8912390.607263276353478, 1462745.338664567098022 ], [ 8912400.872371286153793, 1462745.376813050126657 ], [ 8912400.720752462744713, 1462786.699942828156054 ], [ 8912431.516122886911035, 1462786.814369250321761 ], [ 8912431.364544162526727, 1462828.137561659794301 ], [ 8912492.955382082611322, 1462828.366320243338123 ], [ 8912492.917509024962783, 1462838.697129318257794 ], [ 8912595.568965649232268, 1462839.078096749261022 ], [ 8912595.531129537150264, 1462849.40891239582561 ], [ 8912605.796280492097139, 1462849.446988818235695 ], [ 8912605.607114262878895, 1462901.101123972795904 ], [ 8912595.341944690793753, 1462901.063046114752069 ], [ 8912595.266268754377961, 1462921.724725495558232 ], [ 8912585.00109202042222, 1462921.686643316177651 ], [ 8912584.849721826612949, 1462963.010045319097117 ], [ 8912564.319339429959655, 1462962.933867421234027 ], [ 8912564.243637727573514, 1462983.595589469186962 ], [ 8912553.978439509868622, 1462983.55749432509765 ], [ 8912553.789161633700132, 1463035.211862748255953 ], [ 8912574.319595590233803, 1463035.288052162155509 ], [ 8912574.092497397214174, 1463097.273419799050316 ], [ 8912553.562018759548664, 1463097.19722693786025 ], [ 8912553.410584462806582, 1463138.520877056987956 ], [ 8912584.206347534433007, 1463138.635164174484089 ], [ 8912584.092802327126265, 1463169.627943196101114 ], [ 8912594.358068427070975, 1463169.666032267967239 ], [ 8912594.320223178714514, 1463179.996966295409948 ], [ 8912635.381305331364274, 1463180.149286253610626 ], [ 8912635.078652227297425, 1463262.796900857705623 ], [ 8912686.405160304158926, 1463262.987227959791198 ], [ 8912686.102637907490134, 1463345.635090848896652 ], [ 8912706.633302725851536, 1463345.711200043559074 ], [ 8912706.557684171944857, 1463366.373203915776685 ], [ 8912788.680414436385036, 1463366.677495352458209 ], [ 8912788.604854334145784, 1463387.339518614346161 ], [ 8912870.727662432938814, 1463387.64357474213466 ], [ 8912870.689911751076579, 1463397.974594215862453 ], [ 8912891.220624074339867, 1463398.050571336876601 ], [ 8912891.145136754959822, 1463418.712622531689703 ], [ 8912911.675865113735199, 1463418.788585804402828 ], [ 8912911.638128476217389, 1463429.119617525255308 ], [ 8912921.903496807441115, 1463429.157593824667856 ], [ 8912921.714827973395586, 1463480.812809369526803 ], [ 8912911.449441017583013, 1463480.774831638205796 ], [ 8912911.336225125938654, 1463511.768004513578489 ], [ 8912983.194018013775349, 1463512.033775921678171 ], [ 8912983.118591478094459, 1463532.695913683157414 ], [ 8913013.914815045893192, 1463532.809761200333014 ], [ 8913013.877112526446581, 1463543.140836490085348 ], [ 8913065.204176120460033, 1463543.330508806277066 ], [ 8913065.279543623328209, 1463522.668359067291021 ] ], [ [ 8908515.17212750762701, 1461480.666892858687788 ], [ 8908515.447074260562658, 1461408.355466696666554 ], [ 8908525.711595870554447, 1461408.394993177149445 ], [ 8908525.790141977369785, 1461387.734618360642344 ], [ 8908536.054656447842717, 1461387.774140501627699 ], [ 8908536.133193928748369, 1461367.113779867766425 ], [ 8908607.984751455485821, 1461367.390325884567574 ], [ 8908608.18095981143415, 1461315.739478521747515 ], [ 8908618.445450620725751, 1461315.778968634083867 ], [ 8908618.484687685966492, 1461305.448809947818518 ], [ 8908628.749175073578954, 1461305.488296019844711 ], [ 8908628.788408121094108, 1461295.158140730112791 ], [ 8908700.639802092686296, 1461295.434436358511448 ], [ 8908700.679008815437555, 1461285.104282677173615 ], [ 8908752.001423370093107, 1461285.301522934110835 ], [ 8908751.766290163621306, 1461347.282509370939806 ], [ 8908720.972773605957627, 1461347.164171085460111 ], [ 8908720.73756280168891, 1461409.145285174483433 ], [ 8908700.208508616313338, 1461409.066370697459206 ], [ 8908700.169298339635134, 1461419.396568715572357 ], [ 8908689.904767971485853, 1461419.357105564791709 ], [ 8908689.747909035533667, 1461460.677933394908905 ], [ 8908638.425187254324555, 1461460.48055554064922 ], [ 8908638.385953184217215, 1461470.810770245967433 ], [ 8908607.592312512919307, 1461470.692297724075615 ], [ 8908607.435328636318445, 1461512.013189919991419 ], [ 8908525.318847540766001, 1461511.697088960558176 ], [ 8908525.436675153672695, 1461480.706421427428722 ], [ 8908515.17212750762701, 1461480.666892858687788 ] ], [ [ 8910557.415712859481573, 1458843.991107254289091 ], [ 8910557.223368046805263, 1458895.637804006924853 ], [ 8910505.905006613582373, 1458895.444178052712232 ], [ 8910506.097444230690598, 1458843.797488616779447 ], [ 8910557.415712859481573, 1458843.991107254289091 ] ], [ [ 8910826.841080754995346, 1458152.939067251281813 ], [ 8910826.610961871221662, 1458214.913677748059854 ], [ 8910754.766919644549489, 1458214.643390105804428 ], [ 8910754.997194362804294, 1458152.668791870819405 ], [ 8910826.841080754995346, 1458152.939067251281813 ] ] ], [ [ [ 8908309.920590320602059, 1461469.545326598919928 ], [ 8908330.44966659322381, 1461469.624529116554186 ], [ 8908330.48901223950088, 1461459.294323363574222 ], [ 8908340.753547102212906, 1461459.333918708842248 ], [ 8908340.832230063155293, 1461438.673517690738663 ], [ 8908371.62581411935389, 1461438.792279476765543 ], [ 8908371.743802864104509, 1461407.801702972734347 ], [ 8908351.214768841862679, 1461407.722533983876929 ], [ 8908351.372112758457661, 1461366.401819430990145 ], [ 8908320.578608583658934, 1461366.283041463466361 ], [ 8908320.617954976856709, 1461355.952872958499938 ], [ 8908310.353457897901535, 1461355.913273116340861 ], [ 8908310.392807712778449, 1461345.583108605118468 ], [ 8908259.070345371961594, 1461345.385054748738185 ], [ 8908259.030976962298155, 1461355.715217764256522 ], [ 8908248.766481667757034, 1461355.675595466280356 ], [ 8908248.569616567343473, 1461407.326464474201202 ], [ 8908228.040589680895209, 1461407.24720565858297 ], [ 8908227.922444738447666, 1461438.237769607454538 ], [ 8908268.98054433055222, 1461438.396275856532156 ], [ 8908268.862441342324018, 1461469.386876648757607 ], [ 8908279.126978140324354, 1461469.426494750892743 ], [ 8908279.087613601237535, 1461479.756702704355121 ], [ 8908309.88123694062233, 1461479.875535449245945 ], [ 8908309.920590320602059, 1461469.545326598919928 ] ] ] ] } }
]
}
